IRIDIUM 63              
1 25286U 98021B   25307.48525644  .00000512  00000+0  16726-3 0  9990
2 25286  86.4024  23.6781 0002163 100.2587 259.8854 14.36685950443842
IRIDIUM 69              
1 25319U 98026A   25307.48611262  .00000727  00000+0  21964-3 0  9992
2 25319  86.4009  36.5239 0000425 335.9735  24.1444 14.41146214443124
IRIDIUM 71              
1 25320U 98026B   25307.96202686  .00000410  00000+0  12073-3 0  9993
2 25320  86.4012  30.9993 0002529  41.2929 318.8461 14.41280532443724
IRIDIUM 73              
1 25344U 98032C   25307.49607694  .00000678  00000+0  16327-3 0  9994
2 25344  86.4433 347.6679 0001730 104.0854 256.0544 14.51911221450779
IRIDIUM 82              
1 25467U 98051A   25307.51550712  .00047074  00000+0  99565-3 0  9998
2 25467  86.3659  40.7793 0069644 124.7653 236.0186 15.42318600445346
